OBJECT_NAME,OBJECT_ID,EPOCH,MEAN_MOTION,ECCENTRICITY,INCLINATION,RA_OF_ASC_NODE,ARG_OF_PERICENTER,MEAN_ANOMALY,EPHEMERIS_TYPE,CLASSIFICATION_TYPE,NORAD_CAT_ID,ELEMENT_SET_NO,REV_AT_EPOCH,BSTAR,MEAN_MOTION_DOT,MEAN_MOTION_DDOT
ONEWEB-0336,2021-083S,2026-06-27T20:20:11.736384,13.13472681,.00020015,87.8961,318.1049,90.8520,269.2838,0,U,49202,999,23231,.68964291E-3,.265E-5,0
ONEWEB-0337,2021-083T,2026-06-27T20:34:36.496704,13.13469667,.00020857,87.8959,318.1086,97.2688,262.8678,0,U,49203,999,23231,-.10838543E-3,-.27E-6,0
ONEWEB-0338,2021-083U,2026-06-27T22:48:05.552064,13.20772739,.00018236,87.9184,272.3032,107.4713,252.6619,0,U,49204,999,23823,-.99035649E-3,-.39E-5,0
ONEWEB-0339,2021-083V,2026-06-27T20:46:58.799712,13.13470524,.00018317,87.8962,318.0996,107.7187,252.4142,0,U,49205,999,23229,-.66596344E-3,-.23E-5,0
ONEWEB-0340,2021-083W,2026-06-27T19:58:14.770560,13.18686243,.00019769,87.9180,333.3378,91.5065,268.6294,0,U,49206,999,23137,.11120831E-3,.57E-6,0
ONEWEB-0341,2021-083X,2026-06-27T20:07:57.391680,13.18686902,.00023461,87.9171,333.3391,97.7321,262.4078,0,U,49207,999,23139,.88873598E-4,.48E-6,0
ONEWEB-0342,2021-083Y,2026-06-27T22:57:49.769856,13.20771887,.000201,87.9194,272.2908,103.2752,256.8605,0,U,49208,999,23820,.37156829E-4,.28E-6,0
ONEWEB-0343,2021-083Z,2026-06-27T20:20:06.041760,13.18686904,.00018607,87.9173,333.3359,108.4102,251.7233,0,U,49209,999,23144,-.29877158E-4,.1E-7,0
ONEWEB-0344,2021-083AA,2026-06-27T20:39:39.876480,13.13467792,.00022508,87.8955,318.1143,99.6913,260.4471,0,U,49210,999,23229,-.25733045E-3,-.81E-6,0
ONEWEB-0345,2021-083AB,2026-06-27T20:27:29.126016,13.13467889,.00022043,87.8971,318.0987,100.3669,259.7708,0,U,49211,999,23230,.19429206E-3,.84E-6,0
ONEWEB-0346,2021-083AC,2026-06-27T20:15:14.579136,13.18686579,.0002055,87.9170,333.3364,76.6581,283.4780,0,U,49212,999,23138,.24898186E-4,.23E-6,0
ONEWEB-0348,2021-083AD,2026-06-27T19:05:06.356544,13.20771596,.00024042,87.9196,272.3270,90.8582,269.2826,0,U,49213,999,23821,-.97232159E-4,-.27E-6,0
ONEWEB-0350,2021-083AE,2026-06-27T20:54:17.304768,13.13470001,.0001035,87.8970,318.1002,124.5189,235.6038,0,U,49214,999,23233,-.94632919E-3,-.333E-5,0
ONEWEB-0351,2021-083AF,2026-06-27T18:55:12.281376,13.20771150,.00024521,87.9197,272.3272,119.7644,240.3734,0,U,49215,999,23817,-.22833754E-3,-.8E-6,0
ONEWEB-0352,2021-083AG,2026-06-27T20:12:51.630336,13.13471263,.00019098,87.8964,318.1111,111.5037,248.6296,0,U,49216,999,23242,.74680114E-3,.285E-5,0
ONEWEB-0354,2021-083AH,2026-06-27T19:34:10.351776,13.20773017,.00023876,87.9197,272.3208,94.9304,265.2102,0,U,49217,999,23821,.33562301E-4,.27E-6,0
ONEWEB-0355,2021-083AJ,2026-06-27T20:54:30.280320,13.13470268,.00020188,87.8960,318.1062,103.3212,256.8142,0,U,49218,999,23230,-.86153644E-3,-.302E-5,0
ONEWEB-0357,2021-083AK,2026-06-27T19:29:19.666752,13.20773147,.0002098,87.9197,272.3153,105.6398,254.4967,0,U,49219,999,23821,-.28509737E-3,-.103E-5,0
ONEWEB-0332,2021-090A,2026-06-27T19:10:34.098528,13.14502657,.00017763,87.8969,287.5944,105.3368,254.7958,0,U,49279,999,22897,-.65228921E-3,-.229E-5,0
ONEWEB-0347,2021-090B,2026-06-27T22:52:58.867104,13.20771510,.00018033,87.9194,272.2953,103.5652,256.5682,0,U,49280,999,23246,-.16727251E-3,-.55E-6,0
ONEWEB-0349,2021-090C,2026-06-27T18:11:45.546720,13.20772901,.0002071,87.9195,272.3349,100.6773,259.4594,0,U,49281,999,23122,.53220125E-4,.35E-6,0
ONEWEB-0353,2021-090D,2026-06-27T20:48:45.509760,13.14503503,.00017332,87.8971,287.5764,104.9609,255.1713,0,U,49282,999,22898,-.6931254E-3,-.244E-5,0
ONEWEB-0356,2021-090E,2026-06-27T18:09:18.681408,13.20772088,.0001677,87.9196,272.3286,76.9789,283.1532,0,U,49283,999,23122,-.66015639E-3,-.255E-5,0
ONEWEB-0358,2021-090F,2026-06-27T19:01:18.237216,13.20790687,.00015429,87.9197,272.3285,104.1619,255.9686,0,U,49284,999,23195,-.71295539E-2,-.2886E-4,0
ONEWEB-0359,2021-090G,2026-06-27T18:48:06.063264,13.20773607,.00022757,87.9196,272.3230,95.6793,264.4600,0,U,49285,999,23193,-.3354142E-3,-.123E-5,0
ONEWEB-0360,2021-090H,2026-06-27T18:33:34.756416,13.20769939,.00021121,87.9196,272.3313,101.1395,258.9976,0,U,49286,999,23124,-.17922226E-3,-.6E-6,0
ONEWEB-0361,2021-090J,2026-06-27T18:06:54.995616,13.20771922,.00021048,87.9196,272.3333,96.5061,263.6312,0,U,49287,999,23169,-.94432781E-4,-.25E-6,0
ONEWEB-0362,2021-090K,2026-06-27T20:49:03.371232,13.19724987,.00020879,87.9179,302.8503,106.2335,253.9028,0,U,49288,999,22832,-.28347853E-3,-.101E-5,0
ONEWEB-0363,2021-090L,2026-06-27T18:28:44.152608,13.20770929,.00019104,87.9196,272.3306,90.8055,269.3297,0,U,49289,999,23170,.40173488E-4,.29E-6,0
ONEWEB-0364,2021-090M,2026-06-27T19:24:29.333376,13.20772264,.00020405,87.9192,272.3307,99.9777,260.1586,0,U,49290,999,23284,-.13866433E-3,-.43E-6,0
