ONEWEB-0336             
1 49202U 21083S   26178.84735806  .00000265  00000+0  68964-3 0  9994
2 49202  87.8961 318.1049 0002001  90.8520 269.2838 13.13472681232316
ONEWEB-0337             
1 49203U 21083T   26178.85736686 -.00000027  00000+0 -10839-3 0  9999
2 49203  87.8959 318.1086 0002085  97.2688 262.8678 13.13469667232314
ONEWEB-0338             
1 49204U 21083U   26178.95006426 -.00000390  00000+0 -99036-3 0  9992
2 49204  87.9184 272.3032 0001823 107.4713 252.6619 13.20772739238234
ONEWEB-0339             
1 49205U 21083V   26178.86595833 -.00000230  00000+0 -66596-3 0  9996
2 49205  87.8962 318.0996 0001831 107.7187 252.4142 13.13470524232290
ONEWEB-0340             
1 49206U 21083W   26178.83211540  .00000057  00000+0  11121-3 0  9993
2 49206  87.9180 333.3378 0001976  91.5065 268.6294 13.18686243231370
ONEWEB-0341             
1 49207U 21083X   26178.83885870  .00000048  00000+0  88874-4 0  9997
2 49207  87.9171 333.3391 0002346  97.7321 262.4078 13.18686902231397
ONEWEB-0342             
1 49208U 21083Y   26178.95682604  .00000028  00000+0  37157-4 0  9997
2 49208  87.9194 272.2908 0002010 103.2752 256.8605 13.20771887238207
ONEWEB-0343             
1 49209U 21083Z   26178.84729215  .00000001  00000+0 -29877-4 0  9998
2 49209  87.9173 333.3359 0001860 108.4102 251.7233 13.18686904231444
ONEWEB-0344             
1 49210U 21083AA  26178.86087820 -.00000081  00000+0 -25733-3 0  9996
2 49210  87.8955 318.1143 0002250  99.6913 260.4471 13.13467792232292
ONEWEB-0345             
1 49211U 21083AB  26178.85242044  .00000084  00000+0  19429-3 0  9993
2 49211  87.8971 318.0987 0002204 100.3669 259.7708 13.13467889232306
ONEWEB-0346             
1 49212U 21083AC  26178.84391874  .00000023  00000+0  24898-4 0  9999
2 49212  87.9170 333.3364 0002055  76.6581 283.4780 13.18686579231385
ONEWEB-0348             
1 49213U 21083AD  26178.79521246 -.00000027  00000+0 -97232-4 0  9990
2 49213  87.9196 272.3270 0002404  90.8582 269.2826 13.20771596238218
ONEWEB-0350             
1 49214U 21083AE  26178.87103362 -.00000333  00000+0 -94633-3 0  9996
2 49214  87.8970 318.1002 0001035 124.5189 235.6038 13.13470001232335
ONEWEB-0351             
1 49215U 21083AF  26178.78833659 -.00000080  00000+0 -22834-3 0  9999
2 49215  87.9197 272.3272 0002452 119.7644 240.3734 13.20771150238175
ONEWEB-0352             
1 49216U 21083AG  26178.84226424  .00000285  00000+0  74680-3 0  9994
2 49216  87.8964 318.1111 0001909 111.5037 248.6296 13.13471263232420
ONEWEB-0354             
1 49217U 21083AH  26178.81539759  .00000027  00000+0  33562-4 0  9999
2 49217  87.9197 272.3208 0002387  94.9304 265.2102 13.20773017238214
ONEWEB-0355             
1 49218U 21083AJ  26178.87118380 -.00000302  00000+0 -86154-3 0  9991
2 49218  87.8960 318.1062 0002018 103.3212 256.8142 13.13470268232301
ONEWEB-0357             
1 49219U 21083AK  26178.81203318 -.00000103  00000+0 -28510-3 0  9993
2 49219  87.9197 272.3153 0002098 105.6398 254.4967 13.20773147238210
ONEWEB-0332             
1 49279U 21090A   26178.79900577 -.00000229  00000+0 -65229-3 0  9992
2 49279  87.8969 287.5944 0001776 105.3368 254.7958 13.14502657228978
ONEWEB-0347             
1 49280U 21090B   26178.95345911 -.00000055  00000+0 -16727-3 0  9993
2 49280  87.9194 272.2953 0001803 103.5652 256.5682 13.20771510232465
ONEWEB-0349             
1 49281U 21090C   26178.75816605  .00000035  00000+0  53220-4 0  9991
2 49281  87.9195 272.3349 0002071 100.6773 259.4594 13.20772901231229
ONEWEB-0353             
1 49282U 21090D   26178.86719340 -.00000244  00000+0 -69313-3 0  9995
2 49282  87.8971 287.5764 0001733 104.9609 255.1713 13.14503503228987
ONEWEB-0356             
1 49283U 21090E   26178.75646622 -.00000255  00000+0 -66016-3 0  9995
2 49283  87.9196 272.3286 0001677  76.9789 283.1532 13.20772088231227
ONEWEB-0358             
1 49284U 21090F   26178.79257219 -.00002886  00000+0 -71296-2 0  9997
2 49284  87.9197 272.3285 0001542 104.1619 255.9686 13.20790687231957
ONEWEB-0359             
1 49285U 21090G   26178.78340351 -.00000123  00000+0 -33541-3 0  9991
2 49285  87.9196 272.3230 0002275  95.6793 264.4600 13.20773607231930
ONEWEB-0360             
1 49286U 21090H   26178.77331894 -.00000060  00000+0 -17922-3 0  9998
2 49286  87.9196 272.3313 0002112 101.1395 258.9976 13.20769939231245
ONEWEB-0361             
1 49287U 21090J   26178.75480319 -.00000025  00000+0 -94433-4 0  9998
2 49287  87.9196 272.3333 0002104  96.5061 263.6312 13.20771922231697
ONEWEB-0362             
1 49288U 21090K   26178.86740013 -.00000101  00000+0 -28348-3 0  9997
2 49288  87.9179 302.8503 0002087 106.2335 253.9028 13.19724987228329
ONEWEB-0363             
1 49289U 21090L   26178.76995547  .00000029  00000+0  40173-4 0  9999
2 49289  87.9196 272.3306 0001910  90.8055 269.3297 13.20770929231706
ONEWEB-0364             
1 49290U 21090M   26178.80867284 -.00000043  00000+0 -13866-3 0  9998
2 49290  87.9192 272.3307 0002040  99.9777 260.1586 13.20772264232841
